[{"OBJECT_NAME":"SEEDS II (CO-66)","OBJECT_ID":"2008-021J","EPOCH":"2026-03-09T22:06:22.421376","MEAN_MOTION":15.29097236,"ECCENTRICITY":0.00014475,"INCLINATION":97.7519,"RA_OF_ASC_NODE":62.3611,"ARG_OF_PERICENTER":359.2618,"MEAN_ANOMALY":0.8619,"EPHEMERIS_TYPE":0,"CLASSIFICATION_TYPE":"U","NORAD_CAT_ID":32791,"ELEMENT_SET_NO":999,"REV_AT_EPOCH":97210,"BSTAR":0.00084213052,"MEAN_MOTION_DOT":0.00023758,"MEAN_MOTION_DDOT":0},{"OBJECT_NAME":"STARLINK-31481","OBJECT_ID":"2024-074H","EPOCH":"2026-03-09T03:04:40.663488","MEAN_MOTION":15.27577203,"ECCENTRICITY":0.00012118,"INCLINATION":43.004,"RA_OF_ASC_NODE":346.2485,"ARG_OF_PERICENTER":247.3805,"MEAN_ANOMALY":112.6919,"EPHEMERIS_TYPE":0,"CLASSIFICATION_TYPE":"U","NORAD_CAT_ID":59541,"ELEMENT_SET_NO":999,"REV_AT_EPOCH":10593,"BSTAR":-8.6249698e-5,"MEAN_MOTION_DOT":-2.634e-5,"MEAN_MOTION_DDOT":0}]
